FLOCK 4BE-17            
1 60492U 24149AA  26197.19685617  .00009164  00000+0  22728-3 0  9992
2 60492  97.3771 280.8101 0004471 143.9783 216.1765 15.40589478106723
FLOCK 4BE-22            
1 60494U 24149AC  26197.21698919  .00008756  00000+0  20734-3 0  9997
2 60494  97.3733 281.0691 0004779 151.0951 209.0562 15.42005385106771
FLOCK 4BE-34            
1 60495U 24149AD  26197.16968190  .00008638  00000+0  20483-3 0  9993
2 60495  97.3780 281.8620 0005040 158.6487 201.4972 15.41968076106790
FLOCK 4BE-32            
1 60497U 24149AF  26197.18302525  .00010080  00000+0  22979-3 0  9997
2 60497  97.3718 281.4419 0005029 155.7934 204.3551 15.43106297106805
FLOCK 4BE-11            
1 60501U 24149AK  26197.22735432  .00009704  00000+0  21550-3 0  9990
2 60501  97.3694 281.7443 0005097 155.5230 204.6261 15.43898149106834
FLOCK 4BE-24            
1 60505U 24149AP  26197.21089469  .00011690  00000+0  25716-3 0  9990
2 60505  97.3715 281.9968 0005123 166.9328 193.2054 15.44126319106848
FLOCK 4BE-29            
1 60509U 24149AT  26197.20092847  .00025154  00000+0  52478-3 0  9992
2 60509  97.3809 283.5336 0003695 174.1521 185.9772 15.45530128106899
FLOCK 4BE-2             
1 60511U 24149AV  26197.22215211  .00041257  00000+0  59257-3 0  9993
2 60511  97.3830 285.4157 0005352 170.7885 189.3469 15.55985498107016
FLOCK 4BE-13            
1 60512U 24149AW  26197.22288513  .00007950  00000+0  18456-3 0  9997
2 60512  97.3719 281.9503 0005173 152.9426 207.2092 15.42633135106849
FLOCK 4BE-27            
1 60513U 24149AX  26197.20918912  .00005091  00000+0  15267-3 0  9990
2 60513  97.3827 279.0823 0004151 178.8056 181.3198 15.34928184106597
FLOCK 4BE-9             
1 60514U 24149AY  26197.17689139  .00011368  00000+0  27196-3 0  9991
2 60514  97.3789 281.7457 0003765 167.8485 192.2853 15.41626243106781
FLOCK 4BE-6             
1 60516U 24149BA  26197.16423959  .00008367  00000+0  20947-3 0  9990
2 60516  97.3787 281.0349 0004438 170.4283 189.7048 15.40332710106732
FLOCK 4BE-14            
1 60517U 24149BB  26197.18509359  .00009708  00000+0  23061-3 0  9992
2 60517  97.3693 281.2204 0005513 173.4498 186.6822 15.41874549106791
FLOCK 4BE-1             
1 60518U 24149BC  26197.17039769  .00010332  00000+0  23214-3 0  9990
2 60518  97.3779 282.5882 0005038 173.0972 187.0346 15.43532597106846
FLOCK 4BE-28            
1 60519U 24149BD  26197.20373336  .00026129  00000+0  52987-3 0  9996
2 60519  97.3746 283.4415 0005232 172.7057 187.4270 15.46347044106922
FLOCK 4BE-5             
1 60559U 24149CV  26197.18902230  .00009121  00000+0  22277-3 0  9990
2 60559  97.3840 281.4834 0004142 168.1835 191.9510 15.41060877106744
